0 METEOR 1-25
1 08845U 76043A   13282.75394707  .00000212  00000-0  10931-3 0  6150
2 08845 081.2610 147.6285 0041128 123.0001 281.6712 14.11226095 71580
0 METEOR 1-25
1 08845U 76043A   13284.12614087  .00000238  00000-0  12350-3 0  6165
2 08845 081.2608 146.2929 0041188 119.1918 052.9014 14.11226699 71771
0 METEOR 1-25
1 08845U 76043A   13285.51939571  .00000227  00000-0  11756-3 0  6175
2 08845 081.2605 144.9369 0041235 115.2960 291.1605 14.11227524 71971
0 METEOR 1-25
1 08845U 76043A   13288.16098021  .00000179  00000-0  91063-4 0  6193
2 08845 081.2600 142.3660 0041208 107.9999 031.3219 14.11229375 72345
0 METEOR 1-25
1 08845U 76043A   13289.48956384  .00000116  00000-0  56652-4 0  6202
2 08845 081.2599 141.0729 0041174 104.3079 301.0139 14.11230129 72534
0 METEOR 1-25
1 08845U 76043A   13290.69924698  .00000084  00000-0  39009-4 0  6212
2 08845 081.2599 139.8956 0041117 100.9306 326.6667 14.11230773 72706
0 METEOR 1-25
1 08845U 76043A   13292.13234860  .00000054  00000-0  22667-4 0  6228
2 08845 081.2599 138.5007 0041021 096.9377 047.3659 14.11231158 72903
0 METEOR 1-25
1 08845U 76043A   13293.46184957  .00000051  00000-0  20623-4 0  6234
2 08845 081.2599 137.2067 0040930 093.2245 321.7468 14.11231446 73095
0 METEOR 1-25
1 08845U 76043A   13294.52620042  .00000039  00000-0  14224-4 0  6249
2 08845 081.2598 136.1708 0040860 090.2428 329.0716 14.11231654 73241
0 METEOR 1-25
1 08845U 76043A   13295.72927002  .00000042  00000-0  16000-4 0  6257
2 08845 081.2597 134.9998 0040772 086.8671 321.1503 14.11231744 73416
